GLOBALSTAR M084         
1 38040U 11080A   25061.35439562 -.00000085  00000+0  10231-3 0  9999
2 38040  52.0034  13.7098 0000553 108.3284  58.3066 12.62262773609177
GLOBALSTAR M080         
1 38041U 11080B   25061.32637507 -.00000097  00000+0  35390-4 0  9993
2 38041  52.0087  15.3669 0000830 106.2606  51.4743 12.62277457609295
GLOBALSTAR M082         
1 38042U 11080C   25061.18238542 -.00000072  00000+0  17472-3 0  9997
2 38042  52.0099 331.2399 0000580  31.5111 133.4214 12.62263151609988
GLOBALSTAR M092         
1 38043U 11080D   25061.46368425 -.00000114  00000+0 -59538-4 0  9991
2 38043  52.0085  60.7507 0000318 119.1024   4.8676 12.62273083608475
GLOBALSTAR M090         
1 38044U 11080E   25061.12600459 -.00000065  00000+0  21406-3 0  9997
2 38044  51.9907 325.3594 0000672  57.3845  90.1500 12.62267370610097
GLOBALSTAR M086         
1 38045U 11080F   25061.23789991 -.00000067  00000+0  20756-3 0  9998
2 38045  51.9918 325.5612 0001544  78.7933  97.8835 12.62267365610052
GLOBALSTAR M097         
1 39072U 13005A   25061.54242410 -.00000103  00000+0  26943-5 0  9999
2 39072  52.0025 239.0716 0001028  82.9229 277.1754 12.62270698557348
GLOBALSTAR M093         
1 39073U 13005B   25061.51551843 -.00000101  00000+0  13948-4 0  9998
2 39073  51.9788 232.6232 0001007  83.8276 276.2705 12.62262179557299
